AEROCUBE 8D             
1 41852U 16067E   25093.51185615  .00014119  00000+0  73239-3 0  9993
2 41852  98.1144 286.5823 0004187 193.5630 166.5489 15.16268839459264
AEROCUBE 8C             
1 41853U 16067F   25093.45682695  .00016719  00000+0  86330-3 0  9991
2 41853  98.0983 284.4428 0007246 131.8977 228.2873 15.16372583459244
PROMETHEUS 2-1          
1 41854U 16067G   25093.51767750  .00059475  00000+0  14162-2 0  9994
2 41854  98.0866 299.3282 0007999 132.8790 227.3127 15.41373290460054
PROMETHEUS 2-3          
1 41855U 16067H   25093.07177742  .00066262  00000+0  15819-2 0  9994
2 41855  98.0809 298.0527 0006929 143.9334 216.2379 15.41271547459987
CORVUS BC2              
1 42846U 17042X   25093.45319473  .00008548  00000+0  65099-3 0  9999
2 42846  97.3669 269.3151 0014150 167.7759 192.3812 15.02226509420954
CORVUS BC1              
1 42847U 17042Y   25093.44862180  .00009203  00000+0  69627-3 0  9997
2 42847  97.3702 269.7855 0012972 147.7373 212.4648 15.02466147420975
MIRATA                  
1 43015U 17073C   25093.56577914  .00095461  00000+0  20642-2 0  9994
2 43015  97.5491 345.8606 0096939 329.4479  30.1140 15.39218850400461
MAKERSAT 0              
1 43016U 17073D   25093.41488275  .00035231  00000+0  14861-2 0  9995
2 43016  97.5289 332.3205 0154157  13.2680 347.2534 15.12979161399570
SIRION PATHFINDER-2     
1 43759U 18099B   25093.43051788  .00012269  00000+0  77967-3 0  9998
2 43759  97.4851 147.9807 0009997  24.6218 335.5486 15.08939893346188
CORVUS BC4              
1 43767U 18099K   25093.59611540  .00008981  00000+0  59401-3 0  9991
2 43767  97.4673 144.2665 0010914  78.2891 281.9561 15.07537881346069
MOVE-II                 
1 43780U 18099Y   25093.46736166  .00152816  00000+0  24397-2 0  9996
2 43780  97.4715 165.2258 0000433  21.3768 338.7502 15.52649291347313
SPACEBEE-7              
1 43816U 18099BL  25093.15478674  .00049160  00000+0  16195-2 0  9993
2 43816  97.5016 162.3334 0005372   0.4314 359.6931 15.31298603346460
SHIELDS 1               
1 43850U 18104B   25093.41637279  .00050289  00000+0  72099-3 0  9995
2 43850  85.0135  83.6763 0010017  63.7407 296.4882 15.55898690350994
SONATE                  
1 44400U 19038Q   25093.52888502  .00136689  00000+0  11604-2 0  9996
2 44400  97.7031 112.7220 0010663 131.7174 228.5001 15.69147739318985
DUCHIFAT-3              
1 44854U 19089C   25093.28328491  .00075429  00000+0  18506-2 0  9996
2 44854  36.9467  61.0706 0004012 307.5664  52.4726 15.39574615292612
M2 PATHFINDER           
1 45727U 20037E   25093.45126906  .00009502  00000+0  73711-3 0  9996
2 45727  97.8126 275.6229 0012057 204.0917 155.9744 15.01538015259438
NETSAT-4                
1 46504U 20068U   25093.47836281  .00028045  00000+0  10297-2 0  9992
2 46504  97.8419  67.6515 0010597  81.5811 278.6628 15.27855363248294
NETSAT-3                
1 46505U 20068V   25093.47525238  .00024102  00000+0  91977-3 0  9995
2 46505  97.8417  66.7415 0010041  89.3852 270.8536 15.26616334248268
NETSAT-1                
1 46506U 20068W   25093.39477067  .00020947  00000+0  90644-3 0  9996
2 46506  97.8438  64.9466 0009282  99.6831 260.5453 15.22426086248133
NETSAT-2                
1 46507U 20068X   25093.38714906  .00028054  00000+0  10403-2 0  9993
2 46507  97.8416  67.0832 0008599 101.9400 258.2802 15.27546542248227
WILDTRACKCUBE-SIMBA     
1 47941U 21022K   25093.59555969  .00046102  00000+0  11291-2 0  9992
2 47941  97.4285 356.8175 0010478 179.5674 180.5583 15.40560749222867
GRBALPHA                
1 47959U 21022AD  25093.61296129  .00179616  00000+0  17593-2 0  9992
2 47959  97.4236   3.3131 0009207 146.2127 213.9721 15.65488096222114
LEDSAT                  
1 49069U 21073D   25093.49441870  .00088848  00000+0  15097-2 0  9996
2 49069  97.3936 172.6876 0010288 317.7477  42.2981 15.51084773201009
ROBUSTA-1F (MTCUBE 2)   
1 53109U 22080E   25093.35596653 -.00000003  00000+0  00000+0 0  9993
2 53109  70.1198  91.2032 0008551  22.0847 338.0180  6.42584486 63802
SITRO-AIS 5 (KATYS)     
1 57176U 23091L   25093.56237789  .00018474  00000+0  90700-3 0  9999
2 57176  97.5660 150.4537 0014728 197.1968 162.8768 15.18036641 97402
SITRO-AIS 6 (CHIRKIN)   
1 57192U 23091AC  25093.54606099  .00017419  00000+0  85728-3 0  9991
2 57192  97.5659 150.4579 0014653 196.6881 163.3872 15.17964663 97404
SITRO-AIS 8 (ANOKHIN)   
1 57193U 23091AD  25093.57774356  .00019483  00000+0  92569-3 0  9991
2 57193  97.5654 150.8609 0014262 196.8187 163.2576 15.19170074 97435
SITRO-AIS 7 (FARTUSHNIY)
1 57194U 23091AE  25093.56371221  .00017623  00000+0  86930-3 0  9994
2 57194  97.5657 150.4241 0014483 197.5887 162.4847 15.17884991 97404
SITRO-AIS 10 (BURDAEV)  
1 57199U 23091AK  25093.56826167  .00022891  00000+0  99644-3 0  9992
2 57199  97.5666 152.8338 0010497 179.8892 180.2348 15.22189472 97550
SITRO-AIS 9 (SHCHUKIN)  
1 57201U 23091AM  25093.57858173  .00021834  00000+0  95476-3 0  9994
2 57201  97.5661 152.7794 0010457 180.2463 179.8769 15.22045370 97559
SITRO-AIS 12 (SMIRENNIY)
1 57204U 23091AQ  25093.56959869  .00021642  00000+0  94077-3 0  9993
2 57204  97.5670 153.0225 0010484 174.2788 185.8570 15.22248991 97560
SITRO-AIS 11 (SHEFFER)  
1 57208U 23091AU  25093.59637896  .00021232  00000+0  91855-3 0  9999
2 57208  97.5666 153.1214 0010360 174.6212 185.5137 15.22416365 97576
VERONIKA                
1 58261U 23174F   25093.57346130  .00117124  00000+0  18093-2 0  9995
2 58261  97.4176 176.5834 0006768 269.3907  90.6571 15.53675404 78222
ROBUSTA-1E (ENSO)       
1 58470U 23185J   25093.58561829  .00066440  00000+0  12758-2 0  9990
2 58470  97.3790 166.9281 0006475 315.7322  44.3409 15.47716041 74640
SITRO-AIS 29            
1 59052U 24039B   25093.19222050  .00311355  00000+0  18970-2 0  9993
2 59052  97.4133  66.5510 0006604 172.2619 187.8749 15.76539249 61357
SITRO-AIS 30            
1 59053U 24039C   25093.42569124  .00257959  00000+0  17626-2 0  9992
2 59053  97.4138  66.5272 0006344 179.9780 180.1486 15.74034119 61361
SITRO-AIS 31            
1 59054U 24039D   25093.46171604  .00289260  00000+0  18277-2 0  9992
2 59054  97.4150  66.8061 0006068 176.7541 183.3765 15.75767295 61407
SITRO-AIS 33            
1 59055U 24039E   25093.61713204  .00294424  00000+0  18208-2 0  9990
2 59055  97.4137  67.0559 0006567 173.6442 186.4908 15.76243490 61420
SITRO-AIS 35            
1 59056U 24039F   25093.59687506  .00293130  00000+0  17713-2 0  9996
2 59056  97.4149  67.0905 0006085 172.1555 187.9807 15.76780196 61426
SITRO-AIS 32            
1 59057U 24039G   25093.55851664  .00267419  00000+0  17663-2 0  9996
2 59057  97.4153  66.8449 0006199 176.8668 183.2637 15.74800150 61403
SITRO-AIS 34            
1 59058U 24039H   25093.42879640  .00299865  00000+0  18638-2 0  9990
2 59058  97.4141  66.8554 0006341 173.1230 187.0123 15.76114933 61391
SITRO-AIS 36            
1 59059U 24039J   25093.09469141  .00265910  00000+0  17142-2 0  9998
2 59059  97.4136  66.5181 0005892 172.0051 188.1309 15.75369356 61341
SITRO-AIS 49            
1 59060U 24039K   25093.47018132  .00273428  00000+0  18289-2 0  9998
2 59060  97.4145  66.7931 0006113 176.0596 184.0717 15.74490677 61396
SITRO-AIS 50            
1 59061U 24039L   25093.44397855  .00338922  00000+0  19271-2 0  9991
2 59061  97.4118  67.1158 0006789 168.4615 191.6808 15.78034109 61415
SITRO-AIS 51            
1 59062U 24039M   25093.48475862  .00324158  00000+0  18014-2 0  9991
2 59062  97.4128  67.2154 0006719 169.7700 190.3704 15.78588830 61423
SITRO-AIS 52            
1 59063U 24039N   25093.45782198  .00346489  00000+0  18977-2 0  9991
2 59063  97.4135  67.2706 0006323 169.5836 190.5563 15.78859347 61423
SITRO-AIS 25            
1 59066U 24039R   25093.58295270  .00008112  00000+0  69241-3 0  9997
2 59066  95.3781 294.4505 0159336  60.1529 301.5422 14.88425338 59221
SITRO-AIS 26            
1 59067U 24039S   25093.60223890  .00008064  00000+0  69079-3 0  9995
2 59067  95.3781 294.4331 0159444  60.2452 301.4525 14.88280048 59225
SITRO-AIS 27            
1 59068U 24039T   25093.61166896  .00008421  00000+0  71668-3 0  9993
2 59068  95.3781 294.5401 0158699  59.6783 302.0030 14.88595468 59239
SITRO-AIS 28            
1 59071U 24039U   25093.53334655  .00008014  00000+0  68175-3 0  9995
2 59071  95.3783 294.5094 0158591  59.8756 301.8077 14.88633893 59228
GRBBETA                 
1 60237U 24128C   25093.17680185  .00009123  00000+0  69558-3 0  9990
2 60237  61.9932 314.4422 0045562  43.0620 317.4021 15.01811165 40075
OOV-CUBE (TUBSAT-30)    
1 60240U 24128F   25093.33573706  .00006008  00000+0  49015-3 0  9997
2 60240  61.9974 315.8424 0044713  39.3573 321.0751 14.99725870 40078
ROBUSTA-3A (MEDITERRAN*)
1 60243U 24128J   25092.89763337  .00012989  00000+0  94581-3 0  9994
2 60243  61.9900 315.2184 0043638  36.3022 324.1016 15.03333726 40044
LASARSAT                
1 62391U 24247Q   25093.48917159  .00029977  00000+0  12506-2 0  9992
2 62391  44.9908 164.7092 0006582 351.2039   8.8726 15.23198372 15828
CROCUBE                 
1 62394U 24247T   25093.48981251  .00030884  00000+0  12843-2 0  9992
2 62394  44.9899 164.7084 0007247 352.5949   7.4825 15.23289920 15829
